#dP2023  3  8  0  0  0.00000000      96 __u+U IGS14 FIT  IAC
## 2252 259200.00000000   900.00000000 60011 0.0000000000000
+  119   C06C07C08C09C10C11C12C13C14C16C19C20C21C22C23C24C25
+        C26C27C28C29C30C32C33C34C35C36C37C38C39C40C41C42C43
+        C44C45C46E01E02E03E04E05E07E08E09E10E11E12E14E15E18
+        E19E21E24E25E26E27E30E31E33E34E36G01G02G03G04G05G06
+        G07G08G09G10G11G12G13G14G15G16G17G18G19G20G21G22G23
+        G24G25G26G27G28G29G30G31G32J02J03J04R01R02R03R04R05
+        R07R08R09R11R12R13R14R15R16R17R18R19R20R21R22R24R25
++         9  9  9  9  9  9  9  9  9  9  8  8  8  8  8  8  8
++         8  8  8  8  8  8  8  8  8  8  8  8  8  8  8  8  8
++         8  8  8  8  4  4  4  4  4  4  4  4  4  4  4  4  5
++         4  4  4  5  4  4  4  4  4  5  5  4  4  3  4  4  3
++         4  4  3  4  3  3  4  4  4  4  3  4  3  4  4  4  4
++         4  3  3  4  3  3  4  3  3  9 10 10  8  7  7  7  7
++         7  7  7  6  7  8  7  7  7  7  7  7  7  6  6  7  7
%c M  cc GPS ccc cccc cccc cccc cccc ccccc ccccc ccccc ccccc
%c cc cc ccc ccc cccc cccc cccc cccc ccccc ccccc ccccc ccccc
%f  1.2500000  1.025000000  0.00000000000  0.000000000000000
%f  0.0000000  0.000000000  0.00000000000  0.000000000000000
%i    0    0    0    0      0      0      0      0         0
%i    0    0    0    0      0      0      0      0         0
/* INFORMATION & ANALYSIS CENTER (IAC)            FINAL DATA
/* S/V CLOCKS ARE ALIGNED TO GNSS TIME                      
/* G:C1WC2W R:C1PC2P E:C1XC5X C:C2IC6I J:C1CC2S             
/* PCV:IGS20_2247 OL/AL:FES2004  NONE     YN ORB:CoN CLK:CoN
*  2023 03 08  7 45  0.00000000
PC06  -3569.100764  36523.071345 -20505.385914   -194.779127
PC07 -11887.337728  25661.001963  31281.081433     10.897410
PC08 -18767.025696  35100.275145 -14163.858652    520.877066
PC09   2399.595952  39981.046926 -11860.048003    905.467031
PC10  -3013.405816  27185.912060  32368.778326     -4.322809
PC11  11941.878802  25200.489595   1287.752061    693.930548
PC12  -1299.463282  21950.223296  17219.622901    493.683806
PC13 -13265.186162  35456.250449 -18668.984817    224.497793
PC14  12692.811134  14190.624855 -20399.722973    563.905210
PC16  -4509.930640  35252.724766 -22237.391890    144.286177
PC19 -21476.480239 -10281.000049  14566.726207   -895.323037
PC20  -3692.271393 -15636.571486  22831.872564    690.220174
PC21 -17722.339063  11926.696278 -17922.072018   -908.943611
PC22 -27744.289320   1259.506811  -2569.307115   -596.863234
PC23  19518.023337  -5658.938434  19119.260649   -885.320279
PC24  -5226.954026  24846.689946  11590.888370   -321.839568
PC25  11281.483577  12497.405611  22245.137060     83.992305
PC26 -16210.687136  22359.882024  -4151.851562    -88.820708
PC27   8171.952473 -16064.011458 -21330.091180    107.338535
PC28  17802.183728   1687.425996 -21420.347193     78.519441
PC29 -18150.309943 -19560.377250   8173.736316     90.601943
PC30  -6773.816699 -25185.947575  -9971.363327      0.936001
PC32  17707.526595 -12068.916543  17903.160922   -604.670458
PC33  21514.371358  10178.412585 -14574.155899   -870.973694
PC34   7692.821071  25313.579141   8820.763532    121.777097
PC35 -18297.900213  -2222.413205  20954.887809    668.287000
PC36 -10505.385164 -13373.352369 -22108.264730   -578.683103
PC37  17301.974489 -21192.086085   5443.394711   -806.647125
PC38 -23079.806947  34961.711087  -5318.075529     63.533675
PC39  -7716.615310  31000.642364 -27365.500319     -2.087508
PC40 -16621.158529  19051.099408  33680.316274    -16.975346
PC41  27821.850828  -1017.403414   2026.658201   -697.213316
PC42   2258.234305  15727.474859 -22893.382287   -798.613907
PC43  17865.118140  20093.914341  -7428.180528     10.691242
PC44  -7852.085072  16211.190708  21291.373024     37.526476
PC45 -19535.783537   6159.895293 -18969.695731    -69.448322
PC46   3855.330670 -24339.361270 -13064.524537    -38.355523
PE01  -3306.124364 -16877.287819 -24095.944002    -18.150210
PE02   3785.640379  16674.460268  24154.290085     25.044226
PE03  14956.531073  21255.582499 -14174.027562   -657.030959
PE04 -26059.347195 -13595.133484  -3499.653113    -73.700730
PE05  -5243.656702  16586.320036 -23943.080167    -88.535996
PE07  22169.746376  -2175.927146  19504.339495    -28.253835
PE08  26045.332393  13672.075585   3350.019973    -47.609353
PE09 -22201.938734   1964.531246 -19466.631555   -861.238203
PE10 -15987.108028   -851.124433  24893.244598   -517.515500
PE11 -15138.590280  11482.600327  22684.061635   1162.785142
PE12 -14395.146073 -11962.891700  22938.631544   -449.488320
PE14  -8407.790891 -21668.593138 -13856.750937    162.262381
PE15  14248.710454  12273.127091 -22846.738745     -5.962559
PE18  22844.895846  20156.378214   1002.775180   -308.492945
PE19 -12516.575156 -21354.048143  16246.148192  -3061.542281
PE21  15434.224190 -19976.249666 -15457.335907   -516.260249
PE24 -27157.322858  11296.089347  -3478.927338  -1153.277617
PE25 -15749.206539  19936.844892  15194.604331   -600.878667
PE26   6916.966863 -27347.247811  -8974.861121     39.160710
PE27  26941.361269 -11946.649680   2668.770870   -529.510438
PE30  22057.196513   3651.263006  19373.389024  -1299.790715
PE31 -22471.016447  -3028.998213 -19032.476923   -517.962308
PE33  -4869.561356 -27737.017801   9149.736319   -449.930846
PE34   5016.369176  27651.938304  -9295.397378    -33.776967
PE36  -7283.628591  26963.080402   9785.265400    -22.985819
PG01 -13171.171149  14516.227526  17429.128591    204.968357
PG02  10618.285685 -18831.919085 -14965.487937   -615.902357
PG03 -22779.040609  13061.581189  -3676.855848   -353.311344
PG04 -14860.995182   6928.470108 -20907.754865    -11.930230
PG05  23785.691437  -2998.914128 -11729.270298   -118.642897
PG06   5989.482924  22488.941798 -12639.989794    579.477793
PG07  -6938.554780  24471.540605  -6253.914617    227.393428
PG08 -22420.038061  -3244.936670  14116.343630   -111.911659
PG09  -4097.261895  15417.659185 -21302.021907   -204.817595
PG10  -2699.670919 -15008.874170  21891.129209    -27.668156
PG11  12885.455934  10602.467498 -20661.400343   -124.063126
PG12  24242.301756 -10564.748629  -2095.677670   -348.917725
PG13  21882.300464  11715.289836   9548.301726    487.183658
PG14   -720.254411  16451.082935  20820.184331     -9.583605
PG15  22592.960585    350.333054  13719.164890     19.664691
PG16 -23190.726659  -1783.787551 -13539.141732   -516.599186
PG17   8525.374681  20263.884077  15262.317154    704.263037
PG18   4913.673361 -25871.420253  -2793.925657   -170.503920
PG19  16732.302127  19984.883360   5592.142010    287.171191
PG20  17870.708200   4475.326901 -19026.383050    446.344149
PG21 -15179.579317   4971.822563  21676.284895    154.280617
PG22 -18543.389520 -18901.904466   3459.324572    441.077539
PG23   9955.044475 -17767.225644  16974.393938      9.493358
PG24  14352.297755 -10462.151052  19271.774965   -103.018357
PG25  17728.552604 -16647.817517 -10657.539378    425.951230
PG26 -13696.754533  -9969.583891 -20636.463077    241.905271
PG27 -23140.993479 -12607.372011   4556.797304     85.896300
PG28  -6073.619355 -23522.969382 -10771.369792     36.905082
PG29   8347.688480 -12367.235060 -22018.351294   -589.800416
PG30   1511.425239  25758.367022   5779.352570   -527.747339
PG31  -8125.998958 -20377.417050 -14830.177051   -211.081771
PG32 -12454.470774 -19810.857691  12924.552562   -417.238750
PJ02 -31260.362956  27370.704519  12297.288516     -1.124760
PJ03 -26226.071221  24809.649650  26852.679025      0.756844
PJ04 -31657.044334  21106.112977 -13106.672884     94.171557
PR01  -8921.250669 -11710.908550  20833.778422     24.356474
PR02 -23220.811047  -8206.723783   6816.765333    -23.177952
PR03 -23243.060850    336.418636 -10519.142539     73.776074
PR04 -10374.125266   8187.757734 -21786.368582    178.551658
PR05   8041.499128  11777.691579 -21126.401331    108.929978
PR07  22801.115008   -822.602919  11399.785652     51.319637
PR08  10104.893908  -8479.012673  21889.207730    -69.771306
PR09  11793.021775   3221.843395  22409.454093    107.957605
PR11  15417.620511 -20115.636688  -2941.710043    -14.914436
PR12   2513.963505 -16758.126860 -19039.732601     25.500965
PR13 -10324.398369  -4813.138572 -22844.120141    -32.757235
PR14 -18523.102159  11849.790314 -12910.756493     24.403465
PR15 -15044.706218  20185.030517   4120.672152     90.608337
PR16  -2734.588455  16880.089708  18917.603061     12.108902
PR17 -10496.723040   1798.955952  23186.158989    610.829503
PR18  -2981.771578  17597.211649  18212.235079     70.377177
PR19   4703.158024  24546.720552   5089.818293   -224.497200
PR20  11732.867417  16989.739171 -14935.613723    -88.953648
PR21   9878.070028  -3478.523887 -23258.507555   -378.710804
PR22   3403.678056 -18291.892185 -17433.072089     73.993609
PR24 -12663.666779 -16008.098103  15311.663598    152.096325
PR25  10953.474480  -1039.323119 -23008.342192     57.115855
EOF
